NORAD_CAT_ID,OBJECT_NAME,OBJECT_TYPE,EPOCH,MEAN_MOTION,ECCENTRICITY,INCLINATION,RA_OF_ASC_NODE,ARG_OF_PERICENTER,MEAN_ANOMALY,BSTAR,MEAN_MOTION_DOT,MEAN_MOTION_DDOT,TLE_LINE0,TLE_LINE1,TLE_LINE2,SEMIMAJOR_AXIS,PERIOD,APOGEE,PERIGEE,DECAYED
51748.0,STARLINK-3501,PAYLOAD,2023-02-26 20:04:46,15.08859658,0.000121,53.2142,237.9776,78.1811,281.9317,0.00075277,0.00011719,0.0,0 STARLINK-3501,1 51748U 22016AL  23057.83664628  .00011719  00000-0  75277-3 0  9996,2 51748  53.2142 237.9776 0001210  78.1811 281.9317 15.08859658 57676,6917.82,95.436,540.522,538.848,0.0
51748.0,STARLINK-3501,PAYLOAD,2023-02-27 11:58:37,15.0885206,0.0001139,53.2144,235.004,80.306,279.8061,0.00038872,5.906e-05,0.0,0 STARLINK-3501,1 51748U 22016AL  23058.49904648  .00005906  00000-0  38872-3 0  9999,2 51748  53.2144 235.0040 0001139  80.3060 279.8061 15.08852060 57775,6917.844,95.437,540.496,538.921,0.0
51748.0,STARLINK-3501,PAYLOAD,2023-02-27 18:20:09,15.08875552,0.0001178,53.2144,233.8146,84.0519,276.0608,0.0014744,0.00023278,0.0,0 STARLINK-3501,1 51748U 22016AL  23058.76400134  .00023278  00000-0  14744-2 0  9993,2 51748  53.2144 233.8146 0001178  84.0519 276.0608 15.08875552 57813,6917.772,95.435,540.452,538.822,0.0
51748.0,STARLINK-3501,PAYLOAD,2023-02-27 21:30:56,15.08864362,0.0001146,53.2143,233.2193,82.9279,277.1843,0.00098512,0.00015435,0.0,0 STARLINK-3501,1 51748U 22016AL  23058.89648175  .00015435  00000-0  98512-3 0  9998,2 51748  53.2143 233.2193 0001146  82.9279 277.1843 15.08864362 56766,6917.806,95.436,540.464,538.878,0.0
51748.0,STARLINK-3501,PAYLOAD,2023-02-27 23:06:19,15.08865851,0.0001208,53.2143,232.9223,85.7684,274.3446,0.0010194,0.00015984,0.0,0 STARLINK-3501,1 51748U 22016AL  23058.96272092  .00015984  00000-0  10194-2 0  9995,2 51748  53.2143 232.9223 0001208  85.7684 274.3446 15.08865851 57848,6917.801,95.436,540.502,538.831,0.0
51748.0,STARLINK-3501,PAYLOAD,2023-02-28 11:49:24,15.08840781,0.0001168,53.2143,230.5438,96.5228,263.5897,0.00055811,8.606e-05,0.0,0 STARLINK-3501,1 51748U 22016AL  23059.49264660  .00008606  00000-0  55811-3 0  9995,2 51748  53.2143 230.5438 0001168  96.5228 263.5897 15.08840781 56854,6917.878,95.438,540.551,538.935,0.0
51748.0,STARLINK-3501,PAYLOAD,2023-02-28 15:00:11,15.08838968,0.0001041,53.2144,229.9491,101.24,258.8709,0.00054355,8.373e-05,0.0,0 STARLINK-3501,1 51748U 22016AL  23059.62512735  .00008373  00000-0  54355-3 0  9992,2 51748  53.2144 229.9491 0001041 101.2400 258.8709 15.08838968 57946,6917.884,95.438,540.469,539.028,0.0
51748.0,STARLINK-3501,PAYLOAD,2023-02-28 18:10:57,15.08846512,0.0001093,53.2142,229.3545,94.159,265.9527,0.00090091,0.00014082,0.0,0 STARLINK-3501,1 51748U 22016AL  23059.75760712  .00014082  00000-0  90091-3 0  9997,2 51748  53.2142 229.3545 0001093  94.1590 265.9527 15.08846512 56899,6917.86,95.437,540.482,538.969,0.0
51748.0,STARLINK-3501,PAYLOAD,2023-03-01 03:43:17,15.08802931,0.0003658,53.2132,227.5662,102.0482,258.092,-0.00014608,-2.611e-05,0.0,0 STARLINK-3501,1 51748U 22016AL  23060.15506250 -.00002611  00000-0 -14608-3 0  9995,2 51748  53.2132 227.5662 0003658 102.0482 258.0920 15.08802931 58020,6917.994,95.44,542.389,537.328,0.0
51748.0,STARLINK-3501,PAYLOAD,2023-03-01 18:01:46,15.08803094,9.66e-05,53.214,224.8943,111.8862,248.2232,0.00097026,0.00015172,0.0,0 STARLINK-3501,1 51748U 22016AL  23060.75122965  .00015172  00000-0  97026-3 0  9997,2 51748  53.2140 224.8943 0000966 111.8862 248.2232 15.08803094 57049,6917.993,95.44,540.526,539.19,0.0
51748.0,STARLINK-3501,PAYLOAD,2023-03-02 03:34:05,15.08827334,8.81e-05,53.2138,223.1101,117.7467,242.3614,0.0013995,0.00022047,0.0,0 STARLINK-3501,1 51748U 22016AL  23061.14867406  .00022047  00000-0  13995-2 0  9998,2 51748  53.2138 223.1101 0000881 117.7467 242.3614 15.08827334 58173,6917.919,95.438,540.394,539.175,0.0
51748.0,STARLINK-3501,PAYLOAD,2023-03-02 14:41:47,15.08859511,8.02e-05,53.2138,221.0285,113.4242,246.6835,0.0017655,0.00027937,0.0,0 STARLINK-3501,1 51748U 22016AL  23061.61235135  .00027937  00000-0  17655-2 0  9998,2 51748  53.2138 221.0285 0000802 113.4242 246.6835 15.08859511 57173,6917.821,95.436,540.241,539.131,0.0
51748.0,STARLINK-3501,PAYLOAD,2023-03-03 09:46:23,15.08876987,0.0001269,53.2135,217.4596,93.6545,266.4592,0.0015454,0.00024418,0.0,0 STARLINK-3501,1 51748U 22016AL  23062.40722003  .00024418  00000-0  15454-2 0  9997,2 51748  53.2135 217.4596 0001269  93.6545 266.4592 15.08876987 58365,6917.767,95.435,540.51,538.754,0.0
51748.0,STARLINK-3501,PAYLOAD,2023-03-04 03:15:37,15.08885168,3.99e-05,53.213,214.1854,73.8229,286.2807,0.0016619,0.00026293,0.0,0 STARLINK-3501,1 51748U 22016AL  23063.13584675  .00026293  00000-0  16619-2 0  9996,2 51748  53.2130 214.1854 0000399  73.8229 286.2807 15.08885168 58475,6917.742,95.435,539.883,539.331,0.0
51748.0,STARLINK-3501,PAYLOAD,2023-03-04 12:47:56,15.08839869,0.0001354,53.2127,212.4037,84.7939,275.3207,0.002256,0.00035799,0.0,0 STARLINK-3501,1 51748U 22016AL  23063.53329284  .00035799  00000-0  22560-2 0  9996,2 51748  53.2127 212.4037 0001354  84.7939 275.3207 15.08839869 58533,6917.881,95.438,540.682,538.809,0.0
51748.0,STARLINK-3501,PAYLOAD,2023-03-04 19:09:28,15.08856234,0.0001416,53.2132,211.2144,82.829,277.2863,0.0019745,0.0003129,0.0,0 STARLINK-3501,1 51748U 22016AL  23063.79825097  .00031290  00000-0  19745-2 0  9990,2 51748  53.2132 211.2144 0001416  82.8290 277.2863 15.08856234 57503,6917.831,95.437,540.675,538.716,0.0
51748.0,STARLINK-3501,PAYLOAD,2023-03-06 02:57:12,15.08841847,0.0001545,53.2143,205.2676,84.2099,275.9069,0.00053348,8.213e-05,0.0,0 STARLINK-3501,1 51748U 22016AL  23065.12305748  .00008213  00000-0  53348-3 0  9992,2 51748  53.2143 205.2676 0001545  84.2099 275.9069 15.08841847 58771,6917.875,95.437,540.809,538.671,0.0
51748.0,STARLINK-3501,PAYLOAD,2023-03-06 20:26:26,15.08850334,0.0001636,53.2163,201.9954,87.5672,272.5508,0.00048406,7.426e-05,0.0,0 STARLINK-3501,1 51748U 22016AL  23065.85169502  .00007426  00000-0  48406-3 0  9992,2 51748  53.2163 201.9954 0001636  87.5672 272.5508 15.08850334 57815,6917.849,95.437,540.846,538.582,0.0
51748.0,STARLINK-3501,PAYLOAD,2023-03-07 18:41:49,15.08852812,3.35e-05,53.218,197.8354,236.2942,123.8018,0.00033761,5.091e-05,0.0,0 STARLINK-3501,1 51748U 22016AL  23066.77904454  .00005091  00000-0  33761-3 0  9991,2 51748  53.2180 197.8354 0000335 236.2942 123.8018 15.08852812 59021,6917.841,95.437,539.938,539.474,0.0
51748.0,STARLINK-3501,PAYLOAD,2023-03-08 15:21:51,15.08846171,0.0001759,53.2172,193.9685,104.5607,255.558,0.0005084,7.814e-05,0.0,0 STARLINK-3501,1 51748U 22016AL  23067.64017659  .00007814  00000-0  50840-3 0  9992,2 51748  53.2172 193.9685 0001759 104.5607 255.5580 15.08846171 59154,6917.862,95.437,540.943,538.51,0.0
51748.0,STARLINK-3501,PAYLOAD,2023-03-09 07:15:42,15.08837797,0.0001017,53.216,190.9957,135.3271,224.7803,0.00041871,6.382e-05,0.0,0 STARLINK-3501,1 51748U 22016AL  23068.30257830  .00006382  00000-0  41871-3 0  9996,2 51748  53.2160 190.9957 0001017 135.3271 224.7803 15.08837797 59257,6917.887,95.438,540.456,539.049,0.0
51748.0,STARLINK-3501,PAYLOAD,2023-03-09 13:37:14,15.08857922,0.0001735,53.2157,189.8046,127.7805,232.3345,0.00073236,0.00011392,0.0,0 STARLINK-3501,1 51748U 22016AL  23068.56753433  .00011392  00000-0  73236-3 0  9991,2 51748  53.2157 189.8046 0001735 127.7805 232.3345 15.08857922 59296,6917.826,95.436,540.891,538.49,0.0
51748.0,STARLINK-3501,PAYLOAD,2023-03-10 16:38:47,15.088701,0.0001291,53.2163,184.7503,100.4725,259.6412,0.00058785,9.088e-05,0.0,0 STARLINK-3501,1 51748U 22016AL  23069.69360009  .00009088  00000-0  58785-3 0  9990,2 51748  53.2163 184.7503 0001291 100.4725 259.6412 15.08870100 59460,6917.788,95.436,540.546,538.76,0.0
51748.0,STARLINK-3501,PAYLOAD,2023-03-11 00:35:43,15.0883421,8.45e-05,53.2148,183.262,138.7332,221.3724,-0.00043473,-7.199e-05,0.0,0 STARLINK-3501,1 51748U 22016AL  23070.02480529 -.00007199  00000-0 -43473-3 0  9990,2 51748  53.2148 183.2620 0000845 138.7332 221.3724 15.08834210 59519,6917.898,95.438,540.348,539.179,0.0
51748.0,STARLINK-3501,PAYLOAD,2023-03-11 06:57:16,15.08825779,0.0002429,53.2144,182.0741,96.0984,264.0285,-0.0003344,-5.605e-05,0.0,0 STARLINK-3501,1 51748U 22016AL  23070.28977466 -.00005605  00000-0 -33440-3 0  9992,2 51748  53.2144 182.0741 0002429  96.0984 264.0285 15.08825779 58486,6917.924,95.438,541.469,538.108,0.0
51748.0,STARLINK-3501,PAYLOAD,2023-03-11 19:40:22,15.08831957,0.0001288,53.2146,179.6905,96.3425,263.7714,0.00038122,5.783e-05,0.0,0 STARLINK-3501,1 51748U 22016AL  23070.81970054  .00005783  00000-0  38122-3 0  9994,2 51748  53.2146 179.6905 0001288  96.3425 263.7714 15.08831957 58564,6917.905,95.438,540.661,538.879,0.0
51748.0,STARLINK-3501,PAYLOAD,2023-03-12 16:20:24,15.08823579,5.83e-05,53.2151,175.8272,108.7608,251.3448,0.00044038,6.725e-05,0.0,0 STARLINK-3501,1 51748U 22016AL  23071.68083350  .00006725  00000-0  44038-3 0  9994,2 51748  53.2151 175.8272 0000583 108.7608 251.3448 15.08823579 59764,6917.931,95.439,540.199,539.392,0.0
51748.0,STARLINK-3501,PAYLOAD,2023-03-14 12:51:10,15.08863798,9.84e-05,53.2145,167.5015,77.9814,282.1288,0.000377,5.721e-05,0.0,0 STARLINK-3501,1 51748U 22016AL  23073.53554107  .00005721  00000-0  37700-3 0  9996,2 51748  53.2145 167.5015 0000984  77.9814 282.1288 15.08863798 60045,6917.808,95.436,540.353,538.992,0.0
51748.0,STARLINK-3501,PAYLOAD,2023-03-14 17:37:19,15.08873846,0.0001065,53.2148,166.609,86.5224,273.589,0.00049015,7.529e-05,0.0,0 STARLINK-3501,1 51748U 22016AL  23073.73425006  .00007529  00000-0  49015-3 0  9993,2 51748  53.2148 166.6090 0001065  86.5224 273.5890 15.08873846 60074,6917.777,95.435,540.379,538.905,0.0
51748.0,STARLINK-3501,PAYLOAD,2023-03-15 04:45:01,15.08849969,0.0001063,53.2141,164.5279,94.6667,265.4447,3.0613e-05,2e-06,0.0,0 STARLINK-3501,1 51748U 22016AL  23074.19793895  .00000200  00000-0  30613-4 0  9992,2 51748  53.2141 164.5279 0001063  94.6667 265.4447 15.08849969 60147,6917.85,95.437,540.45,538.98,0.0
